GEOSCAN 3 (RS92S3)      
1 64893U 25155T   26196.20825843  .00010824  00000+0  30767-3 0  9994
2 64893  97.4550 166.4331 0008608  87.2577 272.9652 15.36308583 85158
INNOSAT 3 (RS92S0)      
1 64894U 25155U   26196.16522788  .00024600  00000+0  50785-3 0  9991
2 64894  97.4495 168.3749 0008266  90.8731 269.3465 15.45815207 85285
KNACKSAT-2              
1 67683U 98067XZ  26196.13077976  .00032984  00000+0  36868-3 0  9993
2 67683  51.6273 153.6565 0008008 327.9936  32.0570 15.62399025 24647
