OBJECT_NAME,OBJECT_ID,EPOCH,MEAN_MOTION,ECCENTRICITY,INCLINATION,RA_OF_ASC_NODE,ARG_OF_PERICENTER,MEAN_ANOMALY,EPHEMERIS_TYPE,CLASSIFICATION_TYPE,NORAD_CAT_ID,ELEMENT_SET_NO,REV_AT_EPOCH,BSTAR,MEAN_MOTION_DOT,MEAN_MOTION_DDOT
GEOSCAN 3 (RS92S3),2025-155T,2026-07-15T04:59:53.528352,15.36308583,.0008608,97.4550,166.4331,87.2577,272.9652,0,U,64893,999,8515,.30767E-3,.10824E-3,0
INNOSAT 3 (RS92S0),2025-155U,2026-07-15T03:57:55.688832,15.45815207,.0008266,97.4495,168.3749,90.8731,269.3465,0,U,64894,999,8528,.50785E-3,.246E-3,0
KNACKSAT-2,1998-067XZ,2026-07-15T03:08:19.371264,15.62399025,.0008008,51.6273,153.6565,327.9936,32.0570,0,U,67683,999,2464,.36868E-3,.32984E-3,0
